CSS (TIANHE)            
1 48274U 21035A   23313.76995233  .00039167  00000+0  44715-3 0  9991
2 48274  41.4725 349.5663 0003368  95.1784 264.9440 15.61437700144596
